[{"OBJECT_NAME":"LATINSAT A","OBJECT_ID":"2002-058H","EPOCH":"2026-03-09T22:00:26.760960","MEAN_MOTION":14.85263124,"ECCENTRICITY":0.00565777,"INCLINATION":64.5529,"RA_OF_ASC_NODE":269.8516,"ARG_OF_PERICENTER":262.8341,"MEAN_ANOMALY":96.6332,"EPHEMERIS_TYPE":0,"CLASSIFICATION_TYPE":"U","NORAD_CAT_ID":27612,"ELEMENT_SET_NO":999,"REV_AT_EPOCH":25288,"BSTAR":0.00015857266,"MEAN_MOTION_DOT":1.248e-5,"MEAN_MOTION_DDOT":0},{"OBJECT_NAME":"CZ-4B DEB","OBJECT_ID":"1999-057RY","EPOCH":"2026-03-09T06:39:48.461472","MEAN_MOTION":14.82492709,"ECCENTRICITY":0.00016402,"INCLINATION":98.2838,"RA_OF_ASC_NODE":89.9712,"ARG_OF_PERICENTER":101.2337,"MEAN_ANOMALY":258.9059,"EPHEMERIS_TYPE":0,"CLASSIFICATION_TYPE":"U","NORAD_CAT_ID":35320,"ELEMENT_SET_NO":999,"REV_AT_EPOCH":3073,"BSTAR":0.00064876081,"MEAN_MOTION_DOT":5.154e-5,"MEAN_MOTION_DDOT":0}]
